SARSAT 7 (NOAA 15)      
1 25338U 98030A   22204.55170313  .00000153  00000+0  82017-4 0  9996
2 25338  98.6421 233.6119 0010260 185.9833 174.1226 14.26153673258167
METEOSAT-8 (MSG-1)      
1 27509U 02040B   22204.17383531  .00000130  00000+0  00000+0 0  9992
2 27509   8.1017  50.4673 0000178 161.5738 192.7725  1.00273658 72963
GPS BIIR-08             
1 27663U 03005A   22204.15939632 -.00000009  00000+0  00000+0 0  9998
2 27663  55.4871 271.6439 0125337  41.1233 315.3285  2.00562573142726
GPS BIIR-11             
1 28190U 04009A   22204.45298154 -.00000108  00000+0  00000+0 0  9999
2 28190  55.9824 332.6236 0090568 122.6143 241.0007  2.00559821134371
GPS BIIR-13             
1 28474U 04045A   22203.86796334 -.00000090  00000+0  00000+0 0  9991
2 28474  55.3643  22.0226 0201406 279.4992 287.7368  2.00424474129844
SARSAT 10 (NOAA 18)     
1 28654U 05018A   22204.46773233  .00000141  00000+0  10022-3 0  9997
2 28654  98.9477 274.8732 0013540 226.4678 133.5370 14.12756514885067
GPS BIIR-14M            
1 28874U 05038A   22204.48784101 -.00000107  00000+0  00000+0 0  9995
2 28874  56.0468 330.0584 0137991 274.5400 138.2792  2.00574308123260
METEOSAT-9 (MSG-2)      
1 28912U 05049B   22204.17470733  .00000124  00000+0  00000+0 0  9997
2 28912   6.0978  66.0841 0000666 321.5856  21.8213  1.00267535 60740
GOES 13                 
1 29155U 06018A   22204.46479120  .00000040  00000+0  00000+0 0  9992
2 29155   0.6874  96.7974 0004632  92.2750 340.5985  1.00274109 29099
GPS BIIR-16M            
1 29601U 06052A   22203.97605743 -.00000009  00000+0  00000+0 0  9999
2 29601  55.4951 270.5905 0083034  74.8334 286.1521  2.00553169114826
GPS BIIR-17M            
1 32260U 07047A   22204.28837463 -.00000028  00000+0  00000+0 0  9991
2 32260  53.3232 139.0596 0140975  63.0971 298.3114  2.00572818108233
GPS BIIR-18M            
1 32384U 07062A   22203.86293395 -.00000107  00000+0  00000+0 0  9996
2 32384  56.1674 330.8487 0021062 140.2561  42.2768  2.00564258106923
SARSAT 12 (NOAA 19)     
1 33591U 09005A   22204.54396855  .00000148  00000+0  10469-3 0  9995
2 33591  99.1457 239.4350 0014950  87.4246 272.8636 14.12591272693280
GOES 14                 
1 35491U 09033A   22204.55135769 -.00000090  00000+0  00000+0 0  9996
2 35491   0.4019  95.0427 0013823 116.4587 183.6300  1.00273143 47827
GOES 15                 
1 36411U 10008A   22204.52827060  .00000056  00000+0  00000+0 0  9993
2 36411   0.3737 100.5661 0002289  41.6092 220.9805  1.00278336 45385
GPS BIIF-2              
1 37753U 11036A   22203.89316405 -.00000084  00000+0  00000+0 0  9992
2 37753  56.6225  27.3239 0118454  52.8044 301.3123  2.00565735 80683
GSAT0101 (GALILEO-PFM)  
1 37846U 11060A   22204.03345709 -.00000086  00000+0  00000+0 0  9990
2 37846  57.0097  20.3671 0003721  54.0776 305.9803  1.70475066 66959
GSAT0102 (GALILEO-FM2)  
1 37847U 11060B   22204.54113823 -.00000085  00000+0  00000+0 0  9996
2 37847  57.0113  20.3547 0002225  18.3129 340.0231  1.70475542 66835
LUCH 5A                 
1 37951U 11074B   22204.52052347 -.00000049  00000+0  00000+0 0  9998
2 37951   5.1073  97.0115 0005867   6.4981 192.1539  1.00274489 38905
METEOSAT-10 (MSG-3)     
1 38552U 12035B   22204.31099937  .00000061  00000+0  00000+0 0  9990
2 38552   1.5739  43.2416 0000717  24.6992 354.6181  1.00263773 36575
SARSAT 13 (METOP-B)     
1 38771U 12049A   22204.53911878  .00000060  00000+0  47171-4 0  9993
2 38771  98.6937 263.7543 0000760  58.6660  76.7941 14.21497473510860
GPS BIIF-3              
1 38833U 12053A   22203.88558322  .00000085  00000+0  00000+0 0  9997
2 38833  53.5303 201.8986 0125097  46.4318 314.6173  2.00562304 70857
GSAT0103 (GALILEO-FM3)  
1 38857U 12055A   22202.31309137 -.00000005  00000+0  00000+0 0  9993
2 38857  55.1473 140.7686 0004376 271.1590  88.7610  1.70473744 60682
GSAT0104 (GALILEO-FM4)  
1 38858U 12055B   22204.04290190 -.00000015  00000+0  00000+0 0  9995
2 38858  55.1479 140.7225 0001854 275.0855  84.8592  1.70474064 60719
GPS BIIF-4              
1 39166U 13023A   22203.74396666 -.00000106  00000+0  00000+0 0  9996
2 39166  55.6730 326.4465 0103942  38.6258 322.1162  2.00565774 67291
INSAT-3D                
1 39216U 13038B   22204.46897682 -.00000156  00000+0  00000+0 0  9997
2 39216   0.0371 273.0175 0000991 257.4560  21.6996  1.00272933 32811
GPS BIIF-5              
1 39533U 14008A   22204.24313983  .00000086  00000+0  00000+0 0  9991
2 39533  53.6234 207.3939 0060632 209.5598 150.1227  2.00555586 61108
LUCH 5V                 
1 39727U 14023A   22204.47144220 -.00000268  00000+0  00000+0 0  9997
2 39727   1.5804  75.9869 0003674  70.0846  59.5402  1.00269802 30070
GPS BIIF-6              
1 39741U 14026A   22204.02572591 -.00000084  00000+0  00000+0 0  9999
2 39741  56.5839  26.8446 0026219 306.8454  52.9509  2.00553603 59954
GPS BIIF-7              
1 40105U 14045A   22204.10790144 -.00000013  00000+0  00000+0 0  9993
2 40105  54.6996 145.3812 0020510 111.2076 248.9851  2.00549680 57497
GSAT0201 (GALILEO 5)    
1 40128U 14050A   22203.24438301 -.00000134  00000+0  00000+0 0  9996
2 40128  50.2609 330.8969 1625471 125.3193 251.0033  1.85519209 53807
GSAT0202 (GALILEO 6)    
1 40129U 14050B   22204.04425690 -.00000133  00000+0  00000+0 0  9992
2 40129  50.2849 329.9267 1622531 126.1568 249.9907  1.85519817 54041
GPS BIIF-8              
1 40294U 14068A   22203.98373388 -.00000078  00000+0  00000+0 0  9990
2 40294  55.8407  86.5313 0042120  56.1634 304.2884  2.00574076 56629
GLONASS-K 2             
1 40315U 14075A   22204.24290384  .00000077  00000+0  00000+0 0  9994
2 40315  63.6855 239.9176 0019251 210.9941 212.4414  2.13101504 59491
GPS BIIF-9              
1 40534U 15013A   22204.12478875  .00000009  00000+0  00000+0 0  9995
2 40534  53.6807 263.2178 0069109  20.2784 340.0691  2.00550322 53240
GSAT0203 (GALILEO 7)    
1 40544U 15017A   22203.22733764 -.00000088  00000+0  00000+0 0  9999
2 40544  56.8058  20.4188 0001404 210.7000 149.3180  1.70476082 44899
GSAT0204 (GALILEO 8)    
1 40545U 15017B   22202.89353847 -.00000088  00000+0  00000+0 0  9992
2 40545  56.8112  20.4407 0002057 181.3816 178.6437  1.70475742 45554
GPS BIIF-10             
1 40730U 15033A   22203.78822417 -.00000106  00000+0  00000+0 0  9990
2 40730  55.1705 325.2572 0073533   7.9252 352.1947  2.00576701 51400
METEOSAT-11 (MSG-4)     
1 40732U 15034A   22204.30916816 -.00000002  00000+0  00000+0 0  9994
2 40732   0.3589  64.2206 0001614  24.3000 324.0698  1.00263374 25739
GSAT0205 (GALILEO 9)    
1 40889U 15045A   22203.83389319  .00000016  00000+0  00000+0 0  9992
2 40889  55.6002 260.9865 0003196 359.4062   0.6741  1.70473943 42713
GSAT0206 (GALILEO 10)   
1 40890U 15045B   22202.88149123  .00000009  00000+0  00000+0 0  9997
2 40890  55.5996 261.0088 0002053 322.1674  37.8950  1.70473886 42723
GPS BIIF-11             
1 41019U 15062A   22204.33209580 -.00000076  00000+0  00000+0 0  9991
2 41019  55.8291  86.3611 0078539 217.7461 141.7522  2.00562809 49256
ELEKTRO-L 2             
1 41105U 15074A   22204.59319637 -.00000117  00000+0  00000+0 0  9999
2 41105   3.0776  87.7499 0002217  78.8357 333.7173  1.00273671 24235
GSAT0209 (GALILEO 12)   
1 41174U 15079A   22203.05562808 -.00000010  00000+0  00000+0 0  9992
2 41174  55.1639 140.4520 0004643 312.4580  47.4714  1.70474072 40467
GSAT0208 (GALILEO 11)   
1 41175U 15079B   22203.86167138 -.00000015  00000+0  00000+0 0  9994
2 41175  55.1624 140.4284 0003957 312.6818  47.2515  1.70474094 40890
GPS BIIF-12             
1 41328U 16007A   22204.42189378 -.00000015  00000+0  00000+0 0  9999
2 41328  54.9163 146.0491 0062280 230.6918 128.7281  2.00569191 47261
GSAT0211 (GALILEO 14)   
1 41549U 16030A   22203.39453250  .00000013  00000+0  00000+0 0  9995
2 41549  55.7451 260.9312 0003753 302.0931  57.9493  1.70475399 38363
GSAT0210 (GALILEO 13)   
1 41550U 16030B   22201.33649890 -.00000001  00000+0  00000+0 0  9994
2 41550  55.7456 260.9895 0003628 271.4977  85.8798  1.70475284 38301
INSAT-3DR               
1 41752U 16054A   22204.46732001 -.00000076  00000+0  00000+0 0  9990
2 41752   0.0992  96.7348 0010364 169.4509 277.2079  1.00272248 21537
GSAT0207 (GALILEO 15)   
1 41859U 16069A   22203.93551905 -.00000015  00000+0  00000+0 0  9990
2 41859  54.8246 140.6003 0004739 299.5524  60.3665  1.70472791 35104
GSAT0212 (GALILEO 16)   
1 41860U 16069B   22203.20233902 -.00000011  00000+0  00000+0 0  9992
2 41860  54.8220 140.6182 0003530 322.1668  37.7764  1.70472738 35341
GSAT0213 (GALILEO 17)   
1 41861U 16069C   22204.15430844 -.00000016  00000+0  00000+0 0  9997
2 41861  54.8247 140.5970 0004328 279.1749  80.7417  1.70472866 35224
GSAT0214 (GALILEO 18)   
1 41862U 16069D   22203.12823677 -.00000011  00000+0  00000+0 0  9999
2 41862  54.8228 140.6199 0003547 284.1694  75.7594  1.70472789 35331
GOES 16                 
1 41866U 16071A   22203.86360233 -.00000247  00000+0  00000+0 0  9992
2 41866   0.0565 235.3866 0000594 305.9375 354.9430  1.00271487 20826
GSAT-17                 
1 42815U 17040B   22204.39944157 -.00000256  00000+0  00000+0 0  9996
2 42815   0.0213  94.5528 0002175 152.1748 291.6435  1.00272731 18501
GSAT0215 (GALILEO 19)   
1 43055U 17079A   22202.44558063  .00000006  00000+0  00000+0 0  9998
2 43055  55.7213 260.7893 0003480 263.4398  96.5963  1.70474581 28664
GSAT0216 (GALILEO 20)   
1 43056U 17079B   22202.73777937  .00000008  00000+0  00000+0 0  9996
2 43056  55.7215 260.7810 0005203 269.7789  90.2380  1.70474707 28680
GSAT0217 (GALILEO 21)   
1 43057U 17079C   22202.37144174  .00000006  00000+0  00000+0 0  9996
2 43057  55.7198 260.7908 0004542 280.3927  79.6317  1.70474676 28661
GSAT0218 (GALILEO 22)   
1 43058U 17079D   22201.41830920  .00000000  00000+0  00000+0 0  9996
2 43058  55.7205 260.8145 0005629 267.1541  92.8558  1.70474629 28670
GOES 17                 
1 43226U 18022A   22204.53382763  .00000100  00000+0  00000+0 0  9996
2 43226   0.0886 257.2421 0000194 276.9673 181.9038  1.00271715 16133
